2023-003E               
1 55137U 23003E   23013.14639520  .00009289  00000+0  41727-3 0  9999
2 55137  97.2683 103.1005 0012141 284.2162 137.2414 15.21302682   598
ONEWEB-0532             
1 55140U 23004A   23012.91667824 -.00048449  00000+0 -49442-2 0  9990
2 55140  86.5119 284.5857 0010367 203.4468  98.7066 14.90975922   554
ONEWEB-0533             
1 55141U 23004B   23012.91667824 -.00046919  00000+0 -47692-2 0  9996
2 55141  86.5112 284.5830 0010978 204.4561  99.0591 14.91120925  1309
ONEWEB-0541             
1 55142U 23004C   23012.91667824 -.00048335  00000+0 -49623-2 0  9997
2 55142  86.5128 284.5865 0009141 202.2925  97.6285 14.90743733  1306
ONEWEB-0543             
1 55143U 23004D   23013.25001157  .00008978  00000+0  91274-3 0  9994
2 55143  86.5137 284.4398 0008824 202.1998  84.5888 14.90651891   602
ONEWEB-0544             
1 55144U 23004E   23013.25001157  .00009641  00000+0  95664-3 0  9990
2 55144  86.5109 284.4374 0012579 211.0578  85.9438 14.91599010   602
ONEWEB-0560             
1 55145U 23004F   23012.91667824 -.00047155  00000+0 -47292-2 0  9999
2 55145  86.5127 284.5831 0012669 212.9934  95.5192 14.91642990  1306
ONEWEB-0565             
1 55146U 23004G   23012.91667824 -.00046978  00000+0 -46812-2 0  9999
2 55146  86.5110 284.5849 0012971 217.7954  93.1283 14.91896186  1302
ONEWEB-0567             
1 55147U 23004H   23012.91667824 -.00047183  00000+0 -47101-2 0  9991
2 55147  86.5102 284.5850 0012839 216.5483  93.7230 14.91827341  1308
ONEWEB-0569             
1 55148U 23004J   23012.92707845  .00002612  00000+0  26016-3 0  9990
2 55148  86.5117 284.5780 0011283 203.6956 156.3754 14.91170973   556
ONEWEB-0570             
1 55149U 23004K   23012.91667824 -.00047945  00000+0 -48552-2 0  9990
2 55149  86.5111 284.5830 0011518 206.4837  98.4895 14.91271369  1304
ONEWEB-0571             
1 55150U 23004L   23012.91667824 -.00047213  00000+0 -47258-2 0  9992
2 55150  86.5133 284.5831 0012821 214.3783  94.8699 14.91720046  1300
ONEWEB-0572             
1 55151U 23004M   23013.25001157  .00008647  00000+0  86827-3 0  9994
2 55151  86.5121 284.4400 0011013 203.3096  88.6057 14.91127408   600
ONEWEB-0573             
1 55152U 23004N   23012.91667824 -.00047457  00000+0 -48118-2 0  9990
2 55152  86.5123 284.5873 0011317 205.9440  98.5368 14.91220973  1300
ONEWEB-0588             
1 55153U 23004P   23013.25001157  .00011256  00000+0  11482-2 0  9990
2 55153  86.5139 284.4404 0008344 203.5937  81.9415 14.90536365   603
ONEWEB-0598             
1 55154U 23004Q   23013.25001157  .00011034  00000+0  11207-2 0  9990
2 55154  86.5099 284.4375 0008999 201.5234  85.8196 14.90704640   602
ONEWEB-0599             
1 55155U 23004R   23012.91667824 -.00047774  00000+0 -48409-2 0  9998
2 55155  86.5124 284.5872 0011415 206.2036  98.5323 14.91246983  1307
ONEWEB-0614             
1 55156U 23004S   23012.91667824 -.00048381  00000+0 -49628-2 0  9998
2 55156  86.5116 284.5859 0009246 201.7781  98.4650 14.90777076  1303
ONEWEB-0616             
1 55157U 23004T   23012.91667824 -.00047964  00000+0 -48869-2 0  9991
2 55157  86.5110 284.5836 0010615 203.7465  98.9673 14.91035323  1309
ONEWEB-0617             
1 55158U 23004U   23013.00001157 -.00004272  00000+0 -44222-3 0  9999
2 55158  86.5134 284.5502 0007946 206.6169 177.2422 14.90415282   567
ONEWEB-0618             
1 55159U 23004V   23012.91667824 -.00048225  00000+0 -49099-2 0  9990
2 55159  86.5124 284.5873 0010744 203.8192  99.1814 14.91064706  1305
ONEWEB-0619             
1 55160U 23004W   23012.91667824 -.00047261  00000+0 -47762-2 0  9996
2 55160  86.5117 284.5845 0011878 206.7163  98.9630 14.91346445  1303
ONEWEB-0620             
1 55161U 23004X   23013.25001157  .00008862  00000+0  90159-3 0  9997
2 55161  86.5091 284.4369 0008700 202.7547  83.7362 14.90626235   600
ONEWEB-0621             
1 55162U 23004Y   23012.91667824 -.00049154  00000+0 -50925-2 0  9996
2 55162  86.5117 284.5867 0007840 208.4279  88.1254 14.90391905  1303
ONEWEB-0622             
1 55163U 23004Z   23013.08335648  .00047658  00000+0  48580-2 0  9991
2 55163  86.5134 284.5134 0008029 205.7516 265.3174 14.90435616   581
ONEWEB-0623             
1 55164U 23004AA  23012.91667824 -.00047910  00000+0 -47981-2 0  9994
2 55164  86.5105 284.5853 0012773 214.0696  95.0305 14.91703029  1303
ONEWEB-0624             
1 55165U 23004AB  23013.25001157  .00009936  00000+0  98000-3 0  9997
2 55165  86.5129 284.4348 0012804 215.6836  83.8658 14.91837840   603
ONEWEB-0625             
1 55166U 23004AC  23012.91667824 -.00048084  00000+0 -48914-2 0  9996
2 55166  86.5112 284.5833 0010894 204.2733  99.0276 14.91096244  1301
ONEWEB-0626             
1 55167U 23004AD  23012.91667824 -.00046998  00000+0 -46842-2 0  9997
2 55167  86.5106 284.5851 0012882 217.6055  93.2440 14.91888419  1301
ONEWEB-0627             
1 55168U 23004AE  23013.25001157  .00010378  00000+0  10266-2 0  9999
2 55168  86.5099 284.4370 0012750 213.6104  84.7277 14.91726230   600
ONEWEB-0628             
1 55169U 23004AF  23012.91667824 -.00046760  00000+0 -46703-2 0  9992
2 55169  86.5134 284.5830 0012818 216.0844  93.9594 14.91804404  1308
ONEWEB-0629             
1 55170U 23004AG  23013.25001157  .00009453  00000+0  93010-3 0  9993
2 55170  86.5115 284.4356 0013073 217.7125  82.9787 14.91929068   603
ONEWEB-0631             
1 55171U 23004AH  23012.91667824 -.00047730  00000+0 -47833-2 0  9998
2 55171  86.5129 284.5830 0012732 213.5854  95.2460 14.91675209  1309
ONEWEB-0709             
1 55172U 23004AJ  23012.91667824 -.00048411  00000+0 -49871-2 0  9990
2 55172  86.5095 284.5847 0008664 204.7437  93.8970 14.90610527  1309
ONEWEB-0710             
1 55173U 23004AK  23012.91667824 -.00048006  00000+0 -48213-2 0  9990
2 55173  86.5117 284.5845 0012545 212.0188  96.0334 14.91593159  1302
ONEWEB-0711             
1 55174U 23004AL  23013.00001157 -.00003975  00000+0 -41111-3 0  9990
2 55174  86.5094 284.5482 0008178 205.6587 178.7755 14.90473919   564
ONEWEB-0713             
1 55175U 23004AM  23012.91667824 -.00048673  00000+0 -50389-2 0  9999
2 55175  86.5104 284.5861 0007895 207.6837  89.1220 14.90419096  1304
ONEWEB-0715             
1 55176U 23004AN  23012.91667824 -.00048448  00000+0 -50015-2 0  9996
2 55176  86.5140 284.5878 0008281 205.3786  92.4678 14.90527792  1308
ONEWEB-0716             
1 55177U 23004AP  23012.91667824 -.00048006  00000+0 -48573-2 0  9993
2 55177  86.5126 284.5867 0011680 206.5640  98.7227 14.91303945  1302
ONEWEB-0717             
1 55178U 23004AQ  23012.91667824 -.00047612  00000+0 -48947-2 0  9991
2 55178  86.5097 284.5853 0008941 203.5038  95.8599 14.90687164  1306
ONEWEB-0719             
1 55179U 23004AR  23012.91667824 -.00047997  00000+0 -48940-2 0  9991
2 55179  86.5111 284.5841 0010489 203.6375  98.7955 14.91005920  1309
1998-067UY              
1 55181U 98067UY  23012.85281635  .00072009  00000+0  12017-2 0  9996
2 55181  51.6422  17.9284 0003306 220.2755 139.7990 15.51293202  1018
HSKSAT                  
1 55182U 98067UZ  23012.85231909  .00050677  00000+0  85026-3 0  9994
2 55182  51.6422  17.9254 0002759 203.4043 156.6822 15.51295430  1028
1998-067VA              
1 55183U 98067VA  23012.85245415  .00043895  00000+0  73999-3 0  9992
2 55183  51.6429  17.9257 0005208 296.9177  63.1280 15.51215262  1021
2023-005B               
1 55240U 23005B   23013.23503900  .00002026 -63935-5  00000+0 0  9998
2 55240  28.5157  22.0755 0207356 113.2043 167.2587 15.74795540    74
NOAA 1 [-]              
1 04793U 70106A   23012.92687066 -.00000039  00000+0  27407-4 0  9995
2 04793 101.5289  76.2287 0031307 274.1003 260.2164 12.54010759383845
NOAA 2 (ITOS-D) [-]     
1 06235U 72082A   23012.94201971 -.00000024  00000+0  13861-3 0  9994
2 06235 101.9779   1.6599 0004176  36.1237  20.0253 12.53155970298214
NOAA 3 [-]              
1 06920U 73086A   23012.92801726 -.00000021  00000+0  18811-3 0  9999
2 06920 102.2329   0.2666 0006463 265.9278 149.8792 12.40351980226762
NOAA 4 [-]              
1 07529U 74089A   23012.92018464  .00000004  00000+0  31812-3 0  9994
2 07529 101.9403 358.3658 0009170  63.5142 353.2721 12.53164657202781
NOAA 5 [-]              
1 09057U 76077A   23012.88411625 -.00000003  00000+0  32172-3 0  9992
2 09057 102.1320 343.8706 0009788 111.6793 276.3652 12.37778388 99657
TIROS N [-]             
1 11060U 78096A   23012.85276904  .00000264  00000+0  14827-3 0  9993
2 11060  98.6080  65.7441 0009563 258.8553 101.1548 14.18463861501296
NOAA 6 [-]              
1 11416U 79057A   23012.89462753  .00000530  00000+0  20644-3 0  9999
2 11416  98.6596  29.0388 0010377   6.8194 353.3130 14.33877634271536
NOAA 7 [-]              
1 12553U 81059A   23012.89375982  .00000108  00000+0  75735-4 0  9997
2 12553  98.9715  64.6075 0010686 237.3524 122.6620 14.17368075147465
NOAA 8 [-]              
1 13923U 83022A   23012.94628885  .00000284  00000+0  13017-3 0  9999
2 13923  98.7034   7.8532 0014403 320.3216  39.6910 14.28879906 72321
NOAA 9 [-]              
1 15427U 84123A   23012.92498375  .00000259  00000+0  15405-3 0  9995
2 15427  99.0730 353.8847 0013999 293.7881 120.7443 14.16267645966268
NOAA 10 [-]             
1 16969U 86073A   23012.92012807  .00000258  00000+0  12093-3 0  9994
2 16969  98.5894   0.4438 0013202  61.1942 352.1508 14.28266333890735
NOAA 11 [-]             
1 19531U 88089A   23012.95337038  .00000118  00000+0  81842-4 0  9994
2 19531  98.4472 355.7524 0010154 298.0984  61.9163 14.15346676770459
NOAA 12 [-]             
1 21263U 91032A   23012.93607955  .00000181  00000+0  93699-4 0  9990
2 21263  98.5245  11.9887 0014779  86.8469 273.4402 14.26045368646582
NOAA 13 [-]             
1 22739U 93050A   23012.92573398  .00000211  00000+0  13556-3 0  9990
2 22739  98.5325 347.5610 0010588 102.2050 258.0309 14.12900530516638
